[{"OBJECT_NAME":"ONEWEB-0560","OBJECT_ID":"2023-004F","EPOCH":"2026-03-09T19:52:45.069024","MEAN_MOTION":13.18685993,"ECCENTRICITY":0.0001943,"INCLINATION":87.9239,"RA_OF_ASC_NODE":355.1998,"ARG_OF_PERICENTER":83.3274,"MEAN_ANOMALY":276.8079,"EPHEMERIS_TYPE":0,"CLASSIFICATION_TYPE":"U","NORAD_CAT_ID":55145,"ELEMENT_SET_NO":999,"REV_AT_EPOCH":15661,"BSTAR":1.8602187e-5,"MEAN_MOTION_DOT":2.0e-7,"MEAN_MOTION_DDOT":0},{"OBJECT_NAME":"SL-24 R\/B","OBJECT_ID":"2009-041H","EPOCH":"2026-03-09T22:48:54.174528","MEAN_MOTION":13.74566489,"ECCENTRICITY":0.04281539,"INCLINATION":98.0859,"RA_OF_ASC_NODE":239.2126,"ARG_OF_PERICENTER":227.8253,"MEAN_ANOMALY":254.5095,"EPHEMERIS_TYPE":0,"CLASSIFICATION_TYPE":"U","NORAD_CAT_ID":35688,"ELEMENT_SET_NO":999,"REV_AT_EPOCH":83321,"BSTAR":6.2279755e-5,"MEAN_MOTION_DOT":7.7e-7,"MEAN_MOTION_DDOT":0}]
